#dP2023  9  2 12  0  0.00000000      96 __u+U ITR00 EXT  IAC
## 2277 561600.00000000   900.00000000 60189 0.5000000000000
+  118   C06C07C08C09C10C11C12C13C14C16C19C20C21C22C23C24C25
+        C26C27C28C29C30C32C33C34C35C36C37C38C39C40C41C42C43
+        C44C45C46E02E03E04E05E07E08E09E10E11E12E13E14E15E18
+        E19E21E24E25E26E27E30E31E33E34E36G01G02G03G04G05G06
+        G07G08G09G10G11G13G14G15G16G17G18G19G20G21G22G23G24
+        G25G26G27G28G29G30G31G32J02J03J04R01R02R03R04R05R07
+        R08R09R11R12R13R14R15R16R17R18R19R20R21R22R24R25  0
++         9  9  8  9  9 10  8  9  8  8  8  9  7  8  8  7  8
++         7  9  8  8  9 10  9  7  7  9  7 11  9  9  8  7  9
++         7  8 10  6  7  7  6  7  7  8  6  7  7  6  5  7  8
++         7  7  8  8  8  6  7  7  8  6  6  6  7  6  6  7  7
++         8  7  6  6  6  6  6  7  6  7  6  8  6  6  7  6  8
++         8  7  7  7  5  7  8  7  8  8 11  7  8  8  7  7  7
++        10  8  9  9  9  8  7  9  7  8  9  9  7  7  6 10  0
%c M  cc GPS ccc cccc cccc cccc cccc ccccc ccccc ccccc ccccc
%c cc cc ccc ccc cccc cccc cccc cccc ccccc ccccc ccccc ccccc
%f  0.0000000  0.000000000  0.00000000000  0.000000000000000
%f  0.0000000  0.000000000  0.00000000000  0.000000000000000
%i    0    0    0    0      0      0      0      0         0
%i    0    0    0    0      0      0      0      0         0
/* IAC                                ULTRA-RAPID PREDICTION
/* S/V CLOCKS ARE ALIGNED TO GNSS TIME                      
/* G:C1WC2W R:C1PC2P E:C1XC5X C:C2IC6I J:C1CC2S             
/* PCV:IGS20_2274 OL/AL:FES2004  NONE     YN ORB:CoN CLK:CoN
*  2023 09 03  6  0  0.00000000
PC06 -10381.696203  40812.703506   4227.694195     23.034226
PC07  -5529.367198  27930.019194 -30966.030080    -28.704537
PC08 -19111.474538  24718.846958  28173.010713    362.572377
PC09  -6730.414802  41742.553359  -3641.412434    213.466260
PC10   2298.586197  30315.696103 -28687.233179   -165.961242
PC11  15142.001399  -3881.830751  23187.511179    812.447139
PC12  13040.657092  17013.605954  17895.483627    925.908841
PC13 -11417.050487  25837.761578  31327.837512    345.397829
PC14  24410.190878   1175.192548 -13414.731298    338.849579
PC16 -12749.641141  39536.604148   8364.735604    -63.193121
PC19 -18716.235611   6144.444517  19789.547549   -970.708594
PC20 -26164.392161  -7221.591999   6551.453165    313.071595
PC21  18333.334055  17387.758836  11825.207676   -961.724937
PC22   -102.576606  16701.946281  22340.133184   -323.771744
PC23  11681.584546 -20888.904609  14365.002930   -883.782976
PC24  21769.791582    117.314371 -17479.061207    352.185685
PC25  23004.812841 -15753.884027  -1414.870170    203.083493
PC26   8411.830859  14025.458543 -22622.355173   -172.295116
PC27  -9727.616068 -23621.674319 -11246.446931    193.712047
PC28   1173.656105 -27472.217453   4794.460476    145.161757
PC29 -12377.379746  14903.454890 -20088.062968    169.451820
PC30 -16113.969254  -6920.522471 -21710.673524     -4.365754
PC32 -18408.220917 -17275.134872 -11900.582602   -529.651014
PC33  18746.586855  -6214.786923 -19713.671336   -954.745628
PC34  16221.835692   5345.446297  22059.740388    251.168319
PC35   -288.916360  27480.886823  -4949.027966    554.496630
PC36 -23615.136522  14697.583384   2219.320818   -244.621021
PC37  -7175.020367 -14807.256267  22557.889774   -819.381874
PC38 -25381.541839  26100.544056  21129.870634    102.325653
PC39 -13627.929951  37478.184430  14104.175973     -4.610687
PC40  -9246.885045  22110.790608 -34633.131219    -35.144835
PC41    814.215161 -16486.944203 -22456.444978   -881.737147
PC42  26162.728741   8198.134020  -5095.583190   -558.310409
PC43  12870.401101 -14012.198466  20400.776218     38.082143
PC44  10559.248514  23383.864322  10990.686858    219.770371
PC45 -11252.817111  20783.860368 -14814.177233    -21.300452
PC46 -22295.378424   1016.479826  16731.432206    -81.378914
PE02   9358.449311 -16183.466995  22956.159478     59.818510
PE03   -239.298277 -23580.236768 -17904.930558    -52.204707
PE04  15250.978819  25337.964680   1237.659388   -203.633726
PE05  14990.854097  -8064.566101 -24216.416821     14.875049
PE07 -21458.409937 -12523.071534  16098.876811    -72.052471
PE08 -15021.780628 -25457.629819  -1682.738818   -140.309076
PE09  21387.424516  12670.651075 -16059.989661   -142.996921
PE10  11154.463769  12556.485694  24361.969015   -560.900803
PE11  16874.613260   1491.186545  24259.606800   2856.297201
PE12   4325.696359  20752.617140  20655.203835   -682.823909
PE13 -16511.243489  -2231.374737 -24465.741077    -19.552424
PE14   4893.780353  23583.812497  -8199.257093    329.518536
PE15  -3989.312914 -21009.402017 -20466.704466    -50.203054
PE18 -16904.454017 -26461.583812  -3355.401388    487.151669
PE19  -1926.065493  22154.734504  19538.859744  -1712.498562
PE21 -25929.609698   8852.798570 -11196.835139   -550.404635
PE24  28098.926401   4522.841602  -8176.243484   -300.797254
PE25  26125.401088  -8660.619985  10905.451145     -1.237310
PE26 -19168.524772  18105.456530 -13438.756112    211.396755
PE27 -28311.579080  -4023.614666   7643.261963   -140.502465
PE30 -13499.474082 -14617.329421  21909.856020   -469.469081
PE31  14007.108751  14369.110407 -21746.831677     -4.180254
PE33 -11092.641518  27149.735662   3937.434495     -0.900861
PE34  10631.864133 -27256.312658  -4569.700918    -64.999180
PE36  19194.235240 -17586.680194  14088.580951   -110.520584
PG01  14485.017250 -21802.654775   2889.486605    166.500972
PG02  16278.746291 -17936.910471  11190.957011   -558.343732
PG03  15186.887794 -12462.756145 -17965.590349   -155.347021
PG04   5419.148999 -17467.580168 -19207.067109    144.763482
PG05 -25551.845606   5363.009189   4982.068141   -141.255874
PG06 -10744.047275 -10317.355793 -21919.963735    556.714313
PG07   2836.447765 -23433.293203  12154.276722     77.846937
PG08  13269.082725  -7578.191762  21657.676520   -140.341376
PG09  -3271.613194 -22630.195956 -13552.484129    -69.922751
PG10  16870.345016  11250.073869  17503.997537    -51.841595
PG11 -17789.211253   3511.646607 -19376.624585   -350.549606
PG13 -16389.506317  -2206.664517  20639.257204    567.946045
PG14 -13334.669739 -13460.264415  18701.655904    173.476841
PG15 -11852.785965  10111.305296  21032.285936     73.863318
PG16  26766.099917   1110.511401    699.378566   -459.587265
PG17 -13252.195000 -22875.009742  -1368.248064    723.443994
PG18  -1979.858555  22538.517458  13768.769909   -404.551757
PG19 -16462.694232 -18629.434251 -10012.861699    366.332325
PG20 -25662.621464    511.300888  -6393.394861    413.856869
PG21  16796.891998 -15396.232480  13367.390936    149.633843
PG22 -19267.400891 -11365.447495  14565.843811    129.228807
PG23   3489.518801  14663.412888  21884.449104     63.268152
PG24 -14923.792933  20087.635543   7861.764165   -308.601334
PG25  -4835.776547  15423.668100 -21351.693020    465.719314
PG26  24277.418397   5088.563942 -10085.011791    230.268904
PG27  18362.257874   5631.261265  18267.491798    -33.093462
PG28  10360.252450  12309.247132 -21155.419542     -4.906018
PG29   1447.421264  22800.178663 -13504.860046   -608.824990
PG30  -5317.498199 -18448.392287  18367.137133   -491.113291
PG31  16272.730407   1718.858427 -21176.168312   -222.822686
PG32  16819.103315  19995.725706  -5154.260714   -551.664787
PJ02 -33291.982793  15323.929036 -16198.648069     -3.438488
PJ03 -22758.372246  31172.486265 -12269.350521     -2.040545
PJ04 -26078.587213  27110.195152  24907.788997     70.525519
PR01 -21944.455597 -12369.616322   4043.310348     64.815518
PR02 -16656.711947   -888.948763  19310.265162    -22.474284
PR03  -2226.168763  11531.443947  22690.724964     84.505365
PR04  13034.682165  17205.686770  13628.075872    201.266452
PR05  21280.738340  13799.147937  -2843.776097    118.383506
PR07   1511.491563 -11911.031903 -22463.878919     63.812367
PR08 -13275.117773 -17151.064903 -13345.068355    -72.381675
PR09  23189.573374 -10294.410323  -2153.521730    140.177309
PR11   -617.189752 -11646.061705  22698.195236   -151.235690
PR12 -18162.562360   -989.261555  17907.798540     30.868357
PR13 -23473.745318   9014.001649   4282.808904    -38.813990
PR14 -14987.421082  14840.450844 -14343.923347     25.193527
PR15   1929.092774  11209.642652 -22806.983340     86.510394
PR16  17907.171582    938.914270 -18109.690601     18.309198
PR17  -5937.766751  23491.946207  -7884.267823     14.211774
PR18   1353.917081  23933.233979   8792.070414    100.007617
PR19   7194.065695  13690.739946  20279.197792   -245.815705
PR20  10824.714577  -8662.796444  21410.670691    -99.387010
PR21   5677.060221 -23912.433779   6897.281765    -35.165708
PR22  -1213.446470 -23595.675323  -9582.437118    124.455535
PR24 -10875.494218   9654.751594 -20933.466905    -22.910864
PR25   7100.032461 -23214.580010   7881.708035     39.572743
EOF
